1 43747U 18096AE  21085.94198965  .00003361  00000-0  11488-3 0  9994
2 43747  97.3950 165.8310 0019154 200.7153 159.3314 15.30823981129640
1 43747U 18096AE  21086.46492231  .00003351  00000-0  11451-3 0  9994
2 43747  97.3949 166.3522 0019210 198.8153 161.2380 15.30827229129722
1 43747U 18096AE  21086.92248769  .00003197  00000-0  10938-3 0  9997
2 43747  97.3948 166.8082 0019253 197.2270 162.8320 15.30829521129792
1 43747U 18096AE  21087.18395332  .00003074  00000-0  10525-3 0  9991
2 43747  97.3947 167.0688 0019282 196.3052 163.7571 15.30830710129831
1 43747U 18096AE  21087.51078466  .00003200  00000-0  10945-3 0  9991
2 43747  97.3947 167.3945 0019317 195.1135 164.9532 15.30833190129888
1 43747U 18096AE  21087.77224987  .00002930  00000-0  10044-3 0  9999
2 43747  97.3946 167.6551 0019340 194.1730 165.8971 15.30833863129928
1 43747U 18096AE  21088.16444711  .00002642  00000-0  90821-4 0  9994
2 43747  97.3945 168.0459 0019376 192.7650 167.3103 15.30835172129988
1 43747U 18096AE  21088.68737557  .00002853  00000-0  97838-4 0  9993
2 43747  97.3944 168.5671 0019435 190.8584 169.2240 15.30838852130061
1 43747U 18096AE  21088.88347379  .00002558  00000-0  87990-4 0  9994
2 43747  97.3943 168.7625 0019456 190.1681 169.9169 15.30838844130096
1 43747U 18096AE  21089.21030360  .00002580  00000-0  88736-4 0  9995
2 43747  97.3942 169.0882 0019498 189.0010 171.0884 15.30840666130142
1 43747U 18096AE  21089.86396208  .00002565  00000-0  88219-4 0  9991
2 43747  97.3940 169.7397 0019567 186.6525 173.4459 15.30844010130241
1 43747U 18096AE  21090.19078997  .00002917  00000-0  99951-4 0  9997
2 43747  97.3939 170.0654 0019591 185.5120 174.5908 15.30847242130292
1 43747U 18096AE  21091.17126638  .00006496  00000-0  21915-3 0  9992
2 43747  97.3936 171.0426 0019692 182.0400 178.0765 15.30865778130443
1 43747U 18096AE  21091.75954686  .00008767  00000-0  29466-3 0  9990
2 43747  97.3935 171.6290 0019755 180.0199 180.1044 15.30878971130533
1 43747U 18096AE  21092.21709566  .00008756  00000-0  29418-3 0  9992
2 43747  97.3932 172.0848 0019792 178.4434 181.6872 15.30887187130600
1 43747U 18096AE  21092.47855115  .00008202  00000-0  27574-3 0  9999
2 43747  97.3932 172.3454 0019810 177.5677 182.5664 15.30890759130648
1 43747U 18096AE  21092.87073296  .00008374  00000-0  28138-3 0  9992
2 43747  97.3931 172.7363 0019834 176.1962 183.9433 15.30897731130701
1 43747U 18096AE  21093.45900249  .00008751  00000-0  29381-3 0  9994
2 43747  97.3931 173.3227 0019899 174.1120 186.0359 15.30908114130790
1 43747U 18096AE  21093.52436558  .00008528  00000-0  28640-3 0  9998
2 43747  97.3932 173.3878 0019906 173.8835 186.2653 15.30908830130807
1 43747U 18096AE  21093.78581774  .00008104  00000-0  27226-3 0  9996
2 43747  97.3931 173.6484 0019921 172.9797 187.1727 15.30912083130847
1 43747U 18096AE  21094.17799460  .00007690  00000-0  25846-3 0  9998
2 43747  97.3931 174.0393 0019963 171.6062 188.5517 15.30917213130907
1 43747U 18096AE  21095.15843059  .00006951  00000-0  23380-3 0  9991
2 43747  97.3931 175.0165 0020053 168.2692 191.9021 15.30929993131051
1 43747U 18096AE  21095.94277409  .00006352  00000-0  21381-3 0  9992
2 43747  97.3932 175.7983 0020136 165.6236 194.5582 15.30938820131177
1 43747U 18096AE  21096.20422039  .00006504  00000-0  21883-3 0  9999
2 43747  97.3932 176.0589 0020156 164.7300 195.4554 15.30942903131218
1 43747U 18096AE  21097.18464025  .00006278  00000-0  21123-3 0  9993
2 43747  97.3934 177.0360 0020260 161.3522 198.8466 15.30954829131368
1 43747U 18096AE  21097.64216678  .00006269  00000-0  21089-3 0  9994
2 43747  97.3933 177.4920 0020304 159.7683 200.4368 15.30960481131431
1 43747U 18096AE  21098.16505033  .00008957  00000-0  29996-3 0  9999
2 43747  97.3934 178.0132 0020326 158.0354 202.1762 15.30973858131513
1 43747U 18096AE  21098.68793232  .00007809  00000-0  26185-3 0  9998
2 43747  97.3934 178.5343 0020385 156.2947 203.9238 15.30979005131590
1 43747U 18096AE  21099.47224913  .00007346  00000-0  24638-3 0  9998
2 43747  97.3933 179.3160 0020448 153.6275 206.6012 15.30990902131713
1 43747U 18096AE  21099.66832775  .00006491  00000-0  21803-3 0  9991
2 43747  97.3934 179.5113 0020474 153.0030 207.2280 15.30992407131745
1 43747U 18096AE  21100.19120335  .00005220  00000-0  17584-3 0  9994
2 43747  97.3934 180.0324 0020522 151.1922 209.0457 15.30996037131827
1 43747U 18096AE  21100.45264130  .00005023  00000-0  16928-3 0  9997
2 43747  97.3932 180.2930 0020544 150.2666 209.9748 15.30997220131860
1 43747U 18096AE  21100.64871916  .00004668  00000-0  15751-3 0  9991
2 43747  97.3931 180.4881 0020551 149.6843 210.5592 15.30998346131891
1 43747U 18096AE  21101.43303064  .00003734  00000-0  12651-3 0  9992
2 43747  97.3930 181.2697 0020618 147.0112 213.2420 15.31000736132012
1 43747U 18096AE  21101.75982620  .00003948  00000-0  13361-3 0  9994
2 43747  97.3929 181.5953 0020607 145.9629 214.2939 15.31003551132065
1 43747U 18096AE  21102.08662116  .00003324  00000-0  11291-3 0  9994
2 43747  97.3928 181.9209 0020671 144.9638 215.2968 15.31003949132112
1 43747U 18096AE  21103.19771802  .00003702  00000-0  12539-3 0  9996
2 43747  97.3929 183.0286 0020701 141.0844 219.1892 15.31013807132283
1 43747U 18096AE  21104.17809209  .00004140  00000-0  13986-3 0  9992
2 43747  97.3927 184.0059 0020767 137.7869 222.4976 15.31023419132438
1 43747U 18096AE  21104.70095411  .00005468  00000-0  18382-3 0  9992
2 43747  97.3926 184.5270 0020818 136.1189 224.1710 15.31032416132513
1 43747U 18096AE  21105.48524490  .00006278  00000-0  21057-3 0  9995
2 43747  97.3921 185.3086 0020870 133.4868 226.8113 15.31041754132638
1 43747U 18096AE  21105.94274671  .00004004  00000-0  13528-3 0  9998
2 43747  97.3921 185.7645 0020926 132.0481 228.2545 15.31041203132703
1 43747U 18096AE  21106.46560227  .00004989  00000-0  16785-3 0  9991
2 43747  97.3920 186.2856 0020990 130.4057 229.9020 15.31049802132781
1 43747U 18096AE  21107.18452207  .00007903  00000-0  26414-3 0  9998
2 43747  97.3918 187.0021 0020987 127.9972 232.3168 15.31067266132891
1 43747U 18096AE  21107.51130037  .00010321  00000-0  34394-3 0  9993
2 43747  97.3917 187.3278 0020960 126.9009 233.4157 15.31078970132948
1 43747U 18096AE  21107.70736631  .00010690  00000-0  35605-3 0  9991
2 43747  97.3917 187.5233 0020947 126.2852 234.0328 15.31085063132976
1 43747U 18096AE  21107.90343058  .00012941  00000-0  43024-3 0  9995
2 43747  97.3916 187.7187 0020949 125.6663 234.6533 15.31094773133007
1 43747U 18096AE  21108.36091228  .00012299  00000-0  40886-3 0  9994
2 43747  97.3913 188.1747 0020933 124.1274 236.1956 15.31110136133071
1 43747U 18096AE  21108.49162021  .00014707  00000-0  48817-3 0  9996
2 43747  97.3913 188.3049 0020929 123.7001 236.6239 15.31117322133091
1 43747U 18096AE  21108.88374276  .00013645  00000-0  45299-3 0  9997
2 43747  97.3915 188.6957 0020961 122.4424 237.8848 15.31128886133158
1 43747U 18096AE  21109.47192076  .00013045  00000-0  43299-3 0  9991
2 43747  97.3914 189.2821 0020975 120.4993 239.8322 15.31145704133245
1 43747U 18096AE  21109.73333144  .00012674  00000-0  42067-3 0  9992
2 43747  97.3914 189.5426 0020984 119.6774 240.6560 15.31152951133286
1 43747U 18096AE  21110.45220313  .00013455  00000-0  44608-3 0  9997
2 43747  97.3915 190.2593 0020980 117.2999 243.0382 15.31174520133397
1 43747U 18096AE  21110.77895993  .00013870  00000-0  45961-3 0  9998
2 43747  97.3916 190.5851 0020951 116.2545 244.0853 15.31184521133444
1 43747U 18096AE  21111.17106536  .00013428  00000-0  44490-3 0  9996
2 43747  97.3916 190.9760 0020960 114.9765 245.3656 15.31195511133509
1 43747U 18096AE  21111.75921845  .00011989  00000-0  39739-3 0  9998
2 43747  97.3917 191.5623 0020984 113.0715 247.2741 15.31210047133593
1 43747U 18096AE  21112.15131785  .00011265  00000-0  37349-3 0  9991
2 43747  97.3918 191.9531 0020995 111.7592 248.5886 15.31218757133653
1 43747U 18096AE  21112.47806620  .00009260  00000-0  30751-3 0  9995
2 43747  97.3919 192.2788 0020989 110.6753 249.6741 15.31222573133701
1 43747U 18096AE  21112.73946408  .00008520  00000-0  28312-3 0  9991
2 43747  97.3919 192.5393 0020990 109.8687 250.4819 15.31226820133743
1 43747U 18096AE  21113.19690839  .00007624  00000-0  25359-3 0  9998
2 43747  97.3920 192.9954 0020985 108.3697 251.9829 15.31233757133813
1 43747U 18096AE  21113.65435083  .00008112  00000-0  26958-3 0  9996
2 43747  97.3921 193.4515 0020959 106.8644 253.4898 15.31240858133889
1 43747U 18096AE  21114.17713924  .00008715  00000-0  28934-3 0  9992
2 43747  97.3922 193.9727 0020968 105.1192 255.2371 15.31250357133960
1 43747U 18096AE  21114.76527178  .00009209  00000-0  30547-3 0  9993
2 43747  97.3922 194.5589 0020969 103.1920 257.1662 15.31261769134055
1 43747U 18096AE  21115.48409709  .00007482  00000-0  24866-3 0  9990
2 43747  97.3922 195.2754 0020954 100.8412 259.5189 15.31269835134165
1 43747U 18096AE  21115.74548724  .00007051  00000-0  23447-3 0  9996
2 43747  97.3922 195.5359 0020921 100.0394 260.3209 15.31272585134208
1 43747U 18096AE  21116.46430392  .00009124  00000-0  30243-3 0  9992
2 43747  97.3922 196.2525 0020920  97.8568 262.5049 15.31287653134316
1 43747U 18096AE  21116.66034332  .00010245  00000-0  33916-3 0  9994
2 43747  97.3922 196.4479 0020913  97.1816 263.1804 15.31293583134345
1 43747U 18096AE  21118.16330365  .00006059  00000-0  20164-3 0  9995
2 43747  97.3919 197.9465 0020877  92.2598 268.1034 15.31311295134570
1 43747U 18096AE  21118.49003122  .00006214  00000-0  20669-3 0  9992
2 43747  97.3919 198.2721 0020895  91.2824 269.0811 15.31316261134627
1 43747U 18096AE  21119.47020734  .00006566  00000-0  21815-3 0  9993
2 43747  97.3913 199.2494 0020808  88.0304 272.3320 15.31331574134772
1 43747U 18096AE  21120.45037483  .00006576  00000-0  21838-3 0  9998
2 43747  97.3910 200.2267 0020833  84.7679 275.5939 15.31345229134926
1 43747U 18096AE  21120.64640742  .00006315  00000-0  20981-3 0  9996
2 43747  97.3910 200.4222 0020815  84.0943 276.2670 15.31347561134950
